NORAD_CAT_ID,OBJECT_NAME,OBJECT_TYPE,EPOCH,MEAN_MOTION,ECCENTRICITY,INCLINATION,RA_OF_ASC_NODE,ARG_OF_PERICENTER,MEAN_ANOMALY,BSTAR,MEAN_MOTION_DOT,MEAN_MOTION_DDOT,TLE_LINE0,TLE_LINE1,TLE_LINE2,SEMIMAJOR_AXIS,PERIOD,APOGEE,PERIGEE,DECAYED
49761.0,STARLINK-3203,PAYLOAD,2024-05-23 10:39:20,15.08831499,0.0001465,53.2167,200.6363,95.118,264.998,5.1786e-05,5.36e-06,0.0,0 STARLINK-3203,1 49761U 21115AP  24144.44399019  .00000536  00000-0  51786-4 0  9996,2 49761  53.2167 200.6363 0001465  95.1180 264.9980 15.08831499136751,6917.906,95.438,540.785,538.758,0.0
49761.0,STARLINK-3203,PAYLOAD,2024-05-24 10:30:07,15.08848242,0.000144,53.216,196.1747,86.05,274.0657,0.00021504,3.137e-05,0.0,0 STARLINK-3203,1 49761U 21115AP  24145.43758315  .00003137  00000-0  21504-3 0  9998,2 49761  53.2160 196.1747 0001440  86.0500 274.0657 15.08848242138015,6917.855,95.437,540.716,538.724,0.0
49761.0,STARLINK-3203,PAYLOAD,2024-05-24 20:02:26,15.08825218,0.000123,53.2157,194.3902,120.7668,239.3445,-5.1339e-05,-1.104e-05,0.0,0 STARLINK-3203,1 49761U 21115AP  24145.83503139 -.00001104  00000-0 -51339-4 0  9998,2 49761  53.2157 194.3902 0001230 120.7668 239.3445 15.08825218138075,6917.926,95.438,540.641,538.94,0.0
49761.0,STARLINK-3203,PAYLOAD,2024-05-25 10:20:54,15.08842361,0.0001434,53.2156,191.7144,101.0943,259.0211,0.00014953,2.093e-05,0.0,0 STARLINK-3203,1 49761U 21115AP  24146.43118461  .00002093  00000-0  14953-3 0  9991,2 49761  53.2156 191.7144 0001434 101.0943 259.0211 15.08842361138165,6917.873,95.437,540.73,538.746,0.0
49761.0,STARLINK-3203,PAYLOAD,2024-05-26 10:11:41,15.08841702,0.0001387,53.2153,187.2537,91.7921,268.323,-3.1577e-05,-7.9e-06,0.0,0 STARLINK-3203,1 49761U 21115AP  24147.42478385 -.00000790  00000-0 -31577-4 0  9991,2 49761  53.2153 187.2537 0001387  91.7921 268.3230 15.08841702137202,6917.875,95.437,540.7,538.781,0.0
49761.0,STARLINK-3203,PAYLOAD,2024-05-27 10:02:28,15.0884558,0.0001831,53.2167,182.7928,124.325,235.7916,1.8237e-05,2e-08,0.0,0 STARLINK-3203,1 49761U 21115AP  24148.41838409  .00000002  00000-0  18237-4 0  9990,2 49761  53.2167 182.7928 0001831 124.3250 235.7916 15.08845580137356,6917.863,95.437,540.995,538.462,0.0
49761.0,STARLINK-3203,PAYLOAD,2024-05-28 01:56:19,15.08841672,0.0001392,53.2166,179.8191,82.9659,277.1492,9.6152e-05,1.243e-05,0.0,0 STARLINK-3203,1 49761U 21115AP  24149.08078508  .00001243  00000-0  96152-4 0  9990,2 49761  53.2166 179.8191 0001392  82.9659 277.1492 15.08841672138569,6917.875,95.437,540.703,538.777,0.0
49761.0,STARLINK-3203,PAYLOAD,2024-05-28 08:17:52,15.08843674,0.0001362,53.2163,178.6295,84.7874,275.3273,0.00010476,1.38e-05,0.0,0 STARLINK-3203,1 49761U 21115AP  24149.34574315  .00001380  00000-0  10476-3 0  9992,2 49761  53.2163 178.6295 0001362  84.7874 275.3273 15.08843674137496,6917.869,95.437,540.676,538.792,0.0
49761.0,STARLINK-3203,PAYLOAD,2024-05-29 04:57:53,15.08837148,0.0001395,53.2159,174.764,82.7111,277.404,2.3814e-05,9.1e-07,0.0,0 STARLINK-3203,1 49761U 21115AP  24150.20686913  .00000091  00000-0  23814-4 0  9996,2 49761  53.2159 174.7640 0001395  82.7111 277.4040 15.08837148138732,6917.889,95.438,540.719,538.789,0.0
49761.0,STARLINK-3203,PAYLOAD,2024-05-29 08:08:39,15.08836072,0.0001318,53.2158,174.1689,88.5593,271.555,4.9865e-06,-2.09e-06,0.0,0 STARLINK-3203,1 49761U 21115AP  24150.33934968 -.00000209  00000-0  49865-5 0  9993,2 49761  53.2158 174.1689 0001318  88.5593 271.5550 15.08836072137646,6917.892,95.438,540.669,538.846,0.0
49761.0,STARLINK-3203,PAYLOAD,2024-05-30 11:10:12,15.08842143,0.0001325,53.2155,169.1147,90.8835,269.2309,8.2099e-05,1.019e-05,0.0,0 STARLINK-3203,1 49761U 21115AP  24151.46542572  .00001019  00000-0  82099-4 0  9998,2 49761  53.2155 169.1147 0001325  90.8835 269.2309 15.08842143138923,6917.874,95.437,540.655,538.822,0.0
49761.0,STARLINK-3203,PAYLOAD,2024-05-31 07:50:13,15.08842844,0.0001317,53.2161,165.2477,92.5801,267.5342,0.00013151,1.806e-05,0.0,0 STARLINK-3203,1 49761U 21115AP  24152.32654448  .00001806  00000-0  13151-3 0  9996,2 49761  53.2161 165.2477 0001317  92.5801 267.5342 15.08842844137943,6917.872,95.437,540.648,538.826,0.0
49761.0,STARLINK-3203,PAYLOAD,2024-05-31 17:22:32,15.08840524,0.0001306,53.2159,163.4639,91.1987,268.9155,8.9012e-05,1.129e-05,0.0,0 STARLINK-3203,1 49761U 21115AP  24152.72398719  .00001129  00000-0  89012-4 0  9994,2 49761  53.2159 163.4639 0001306  91.1987 268.9155 15.08840524139119,6917.879,95.438,540.647,538.84,0.0
49761.0,STARLINK-3203,PAYLOAD,2024-06-01 04:30:14,15.08835614,0.0001357,53.2159,161.3824,91.7288,268.386,1.1147e-05,-1.11e-06,0.0,0 STARLINK-3203,1 49761U 21115AP  24153.18767257 -.00000111  00000-0  11147-4 0  9997,2 49761  53.2159 161.3824 0001357  91.7288 268.3860 15.08835614139186,6917.894,95.438,540.698,538.82,0.0
49761.0,STARLINK-3203,PAYLOAD,2024-06-01 07:41:01,15.08836739,0.0001352,53.216,160.7877,91.5448,268.5699,1.5672e-05,-3.8e-07,0.0,0 STARLINK-3203,1 49761U 21115AP  24153.32015172 -.00000038  00000-0  15672-4 0  9990,2 49761  53.2160 160.7877 0001352  91.5448 268.5699 15.08836739138090,6917.89,95.438,540.691,538.82,0.0
49761.0,STARLINK-3203,PAYLOAD,2024-06-02 09:07:11,15.08840216,0.0001393,53.2166,156.0307,93.8546,266.2606,3.2592e-05,2.31e-06,0.0,0 STARLINK-3203,1 49761U 21115AP  24154.37999034  .00000231  00000-0  32592-4 0  9998,2 49761  53.2166 156.0307 0001393  93.8546 266.2606 15.08840216139360,6917.88,95.438,540.708,538.781,0.0
49761.0,STARLINK-3203,PAYLOAD,2024-06-03 07:22:35,15.08840021,0.0001336,53.2164,151.8666,92.7801,267.3344,9.1256e-05,1.165e-05,0.0,0 STARLINK-3203,1 49761U 21115AP  24155.30735074  .00001165  00000-0  91256-4 0  9993,2 49761  53.2164 151.8666 0001336  92.7801 267.3344 15.08840021138395,6917.88,95.438,540.67,538.821,0.0
49761.0,STARLINK-3203,PAYLOAD,2024-06-03 16:54:53,15.0884141,0.000133,53.2164,150.0824,91.6514,268.463,8.7274e-05,1.101e-05,0.0,0 STARLINK-3203,1 49761U 21115AP  24155.70479036  .00001101  00000-0  87274-4 0  9995,2 49761  53.2164 150.0824 0001330  91.6514 268.4630 15.08841410139568,6917.876,95.437,540.661,538.821,0.0
49761.0,STARLINK-3203,PAYLOAD,2024-06-04 08:48:44,15.08846032,0.0001367,53.2163,147.1084,92.6286,267.4863,9.7662e-05,1.267e-05,0.0,0 STARLINK-3203,1 49761U 21115AP  24156.36718696  .00001267  00000-0  97662-4 0  9991,2 49761  53.2163 147.1084 0001367  92.6286 267.4863 15.08846032138559,6917.862,95.437,540.673,538.781,0.0
49761.0,STARLINK-3203,PAYLOAD,2024-06-04 16:45:40,15.08841506,0.0001365,53.216,145.6209,93.4779,266.637,5.1334e-05,5.29e-06,0.0,0 STARLINK-3203,1 49761U 21115AP  24156.69839067  .00000529  00000-0  51334-4 0  9999,2 49761  53.2160 145.6209 0001365  93.4779 266.6370 15.08841506138603,6917.876,95.437,540.685,538.796,0.0
49761.0,STARLINK-3203,PAYLOAD,2024-06-05 05:28:46,15.0884049,0.0001364,53.2161,143.242,93.1256,266.9892,3.7295e-05,3.06e-06,0.0,0 STARLINK-3203,1 49761U 21115AP  24157.22831091  .00000306  00000-0  37295-4 0  9991,2 49761  53.2161 143.2420 0001364  93.1256 266.9892 15.08840490139793,6917.879,95.438,540.687,538.8,0.0
49761.0,STARLINK-3203,PAYLOAD,2024-06-05 08:39:32,15.08842369,0.0001389,53.2162,142.6474,92.5991,267.516,5.2084e-05,5.41e-06,0.0,0 STARLINK-3203,1 49761U 21115AP  24157.36078920  .00000541  00000-0  52084-4 0  9994,2 49761  53.2162 142.6474 0001389  92.5991 267.5160 15.08842369138704,6917.873,95.437,540.699,538.777,0.0
49761.0,STARLINK-3203,PAYLOAD,2024-06-05 22:58:00,15.08840294,0.0001418,53.2171,139.9712,93.1998,266.9156,4.8749e-05,4.88e-06,0.0,0 STARLINK-3203,1 49761U 21115AP  24157.95695000  .00000488  00000-0  48749-4 0  9996,2 49761  53.2171 139.9712 0001418  93.1998 266.9156 15.08840294138797,6917.879,95.438,540.725,538.764,0.0
49761.0,STARLINK-3203,PAYLOAD,2024-06-06 05:19:32,15.0884354,0.0001402,53.2165,138.7819,93.7862,266.329,8.723e-05,1.101e-05,0.0,0 STARLINK-3203,1 49761U 21115AP  24158.22190649  .00001101  00000-0  87230-4 0  9997,2 49761  53.2165 138.7819 0001402  93.7862 266.3290 15.08843540138839,6917.87,95.437,540.704,538.765,0.0
49761.0,STARLINK-3203,PAYLOAD,2024-06-08 05:01:07,15.08840778,0.0001362,53.2174,129.8639,91.0406,269.0742,3.37e-05,2.48e-06,0.0,0 STARLINK-3203,1 49761U 21115AP  24160.20911167  .00000248  00000-0  33700-4 0  9998,2 49761  53.2174 129.8639 0001362  91.0406 269.0742 15.08840778140240,6917.878,95.438,540.685,538.801,0.0
49761.0,STARLINK-3203,PAYLOAD,2024-06-08 14:33:26,15.0883843,0.0001288,53.2166,128.0789,85.6064,274.5076,-6.5974e-06,-3.93e-06,0.0,0 STARLINK-3203,1 49761U 21115AP  24160.60655459 -.00000393  00000-0 -65974-5 0  9993,2 49761  53.2166 128.0789 0001288  85.6064 274.5076 15.08838430139199,6917.885,95.438,540.641,538.859,0.0
49761.0,STARLINK-3203,PAYLOAD,2024-06-08 22:30:22,15.0883246,0.0001314,53.2171,126.594,95.5548,264.5594,3.8203e-05,3.2e-06,0.0,0 STARLINK-3203,1 49761U 21115AP  24160.93775828  .00000320  00000-0  38203-4 0  9994,2 49761  53.2171 126.5940 0001314  95.5548 264.5594 15.08832460139241,6917.903,95.438,540.677,538.859,0.0
49761.0,STARLINK-3203,PAYLOAD,2024-06-09 04:51:54,15.08836885,0.0001295,53.2175,125.4047,102.4306,257.6832,5.5463e-05,5.95e-06,0.0,0 STARLINK-3203,1 49761U 21115AP  24161.20271586  .00000595  00000-0  55463-4 0  9998,2 49761  53.2175 125.4047 0001295 102.4306 257.6832 15.08836885140390,6917.89,95.438,540.651,538.859,0.0
49761.0,STARLINK-3203,PAYLOAD,2024-06-09 14:24:13,15.08837596,0.0001293,53.2178,123.6203,103.8857,256.2279,8.1394e-05,1.008e-05,0.0,0 STARLINK-3203,1 49761U 21115AP  24161.60015560  .00001008  00000-0  81394-4 0  9992,2 49761  53.2178 123.6203 0001293 103.8857 256.2279 15.08837596139344,6917.888,95.438,540.647,538.858,0.0
49761.0,STARLINK-3203,PAYLOAD,2024-06-09 20:45:46,15.0883276,0.0001405,53.2189,122.4317,101.6261,258.4889,8.2296e-05,1.022e-05,0.0,0 STARLINK-3203,1 49761U 21115AP  24161.86511921  .00001022  00000-0  82296-4 0  9990,2 49761  53.2189 122.4317 0001405 101.6261 258.4889 15.08832760139382,6917.903,95.438,540.739,538.796,0.0
